CSS (TIANHE)            
1 48274U 21035A   24104.19976476  .00001341  00000+0  17491-4 0  9990
2 48274  41.4689 120.1470 0007481 345.3934  14.6689 15.63987002168926
